EARTHCARE               
1 59908U 24101A   24203.33808277  .00021145  00000+0  31433-3 0  9997
2 59908  96.9838 330.2784 0003098 358.6168   1.5078 15.55180582  8290
